{
  "type": "FeatureCollection",
  "features": [
    {
      "type": "Feature",
      "properties": {
        "norad_id": 28890,
        "name": "BEIJING 1",
        "group": "dmc",
        "lat": -2.956462097447169,
        "lon": 108.40034326156746,
        "alt_km": 695.8554220095848,
        "timestamp": "2025-12-06T11:28:10.695869+00:00",
        "meta_object_name": "BEIJING 1",
        "meta_object_id": "2005-043A",
        "meta_epoch": "2025-12-05T22:21:17.826048",
        "meta_mean_motion": 14.63356009,
        "meta_eccentricity": 0.00149973,
        "meta_inclination": 98.2657,
        "meta_ra_of_asc_node": 107.4226,
        "meta_arg_of_pericenter": 161.9883,
        "meta_mean_anomaly": 198.1854,
        "meta_ephemeris_type": 0,
        "meta_classification_type": "U",
        "meta_norad_cat_id": 28890,
        "meta_element_set_no": 999,
        "meta_rev_at_epoch": 7238,
        "meta_bstar": 0.000161346,
        "meta_mean_motion_dot": 7.86e-06,
        "meta_mean_motion_ddot": 0,
        "tle_line1": "1 28890U 05043A   25339.93145632  .00000786  00000+0  16135-3 0  9993",
        "tle_line2": "2 28890  98.2657 107.4226 0014997 161.9883 198.1854 14.63356009 72387"
      },
      "geometry": {
        "type": "Point",
        "coordinates": [
          108.40034326156746,
          -2.956462097447169
        ]
      }
    },
    {
      "type": "Feature",
      "properties": {
        "norad_id": 33320,
        "name": "HUANJING 1A (HJ-1A)",
        "group": "dmc",
        "lat": -64.862845043935,
        "lon": -14.309480607254688,
        "alt_km": 633.0946445964246,
        "timestamp": "2025-12-06T11:28:10.695894+00:00",
        "meta_object_name": "HUANJING 1A (HJ-1A)",
        "meta_object_id": "2008-041A",
        "meta_epoch": "2025-12-05T22:48:54.376704",
        "meta_mean_motion": 14.83360733,
        "meta_eccentricity": 0.00205374,
        "meta_inclination": 97.6532,
        "meta_ra_of_asc_node": 328.5328,
        "meta_arg_of_pericenter": 55.6627,
        "meta_mean_anomaly": 304.6527,
        "meta_ephemeris_type": 0,
        "meta_classification_type": "U",
        "meta_norad_cat_id": 33320,
        "meta_element_set_no": 999,
        "meta_rev_at_epoch": 92975,
        "meta_bstar": 0.00035056487,
        "meta_mean_motion_dot": 2.833e-05,
        "meta_mean_motion_ddot": 0,
        "tle_line1": "1 33320U 08041A   25339.95062936  .00002833  00000+0  35056-3 0  9993",
        "tle_line2": "2 33320  97.6532 328.5328 0020537  55.6627 304.6527 14.83360733929751"
      },
      "geometry": {
        "type": "Point",
        "coordinates": [
          -14.309480607254688,
          -64.862845043935
        ]
      }
    },
    {
      "type": "Feature",
      "properties": {
        "norad_id": 33321,
        "name": "HUANJING 1B (HJ-1B)",
        "group": "dmc",
        "lat": 11.136137974534646,
        "lon": 154.26523335737716,
        "alt_km": 614.0940754589083,
        "timestamp": "2025-12-06T11:28:10.695909+00:00",
        "meta_object_name": "HUANJING 1B (HJ-1B)",
        "meta_object_id": "2008-041B",
        "meta_epoch": "2025-12-05T23:22:42.251232",
        "meta_mean_motion": 14.82793943,
        "meta_eccentricity": 0.00382466,
        "meta_inclination": 97.6392,
        "meta_ra_of_asc_node": 332.2699,
        "meta_arg_of_pericenter": 97.2246,
        "meta_mean_anomaly": 263.3318,
        "meta_ephemeris_type": 0,
        "meta_classification_type": "U",
        "meta_norad_cat_id": 33321,
        "meta_element_set_no": 999,
        "meta_rev_at_epoch": 92977,
        "meta_bstar": 0.00028713902,
        "meta_mean_motion_dot": 2.3e-05,
        "meta_mean_motion_ddot": 0,
        "tle_line1": "1 33321U 08041B   25339.97410013  .00002300  00000+0  28714-3 0  9991",
        "tle_line2": "2 33321  97.6392 332.2699 0038246  97.2246 263.3318 14.82793943929777"
      },
      "geometry": {
        "type": "Point",
        "coordinates": [
          154.26523335737716,
          11.136137974534646
        ]
      }
    },
    {
      "type": "Feature",
      "properties": {
        "norad_id": 33446,
        "name": "YAOGAN-4",
        "group": "dmc",
        "lat": 79.46869548877567,
        "lon": -137.82901539771476,
        "alt_km": 615.0894388696279,
        "timestamp": "2025-12-06T11:28:10.695922+00:00",
        "meta_object_name": "YAOGAN-4",
        "meta_object_id": "2008-061A",
        "meta_epoch": "2025-12-05T18:53:59.849664",
        "meta_mean_motion": 14.82648614,
        "meta_eccentricity": 0.00141806,
        "meta_inclination": 97.9174,
        "meta_ra_of_asc_node": 269.9554,
        "meta_arg_of_pericenter": 346.5672,
        "meta_mean_anomaly": 13.5162,
        "meta_ephemeris_type": 0,
        "meta_classification_type": "U",
        "meta_norad_cat_id": 33446,
        "meta_element_set_no": 999,
        "meta_rev_at_epoch": 91700,
        "meta_bstar": 0.00037378722,
        "meta_mean_motion_dot": 2.964e-05,
        "meta_mean_motion_ddot": 0,
        "tle_line1": "1 33446U 08061A   25339.78749826  .00002964  00000+0  37379-3 0  9990",
        "tle_line2": "2 33446  97.9174 269.9554 0014180 346.5672  13.5162 14.82648614917005"
      },
      "geometry": {
        "type": "Point",
        "coordinates": [
          -137.82901539771476,
          79.46869548877567
        ]
      }
    },
    {
      "type": "Feature",
      "properties": {
        "norad_id": 35681,
        "name": "DEIMOS-1",
        "group": "dmc",
        "lat": 26.25301705066247,
        "lon": 137.539169632955,
        "alt_km": 643.626588467414,
        "timestamp": "2025-12-06T11:28:10.695933+00:00",
        "meta_object_name": "DEIMOS-1",
        "meta_object_id": "2009-041A",
        "meta_epoch": "2025-12-05T22:19:27.791328",
        "meta_mean_motion": 14.74936163,
        "meta_eccentricity": 0.00026874,
        "meta_inclination": 97.7153,
        "meta_ra_of_asc_node": 140.851,
        "meta_arg_of_pericenter": 92.6109,
        "meta_mean_anomaly": 267.5408,
        "meta_ephemeris_type": 0,
        "meta_classification_type": "U",
        "meta_norad_cat_id": 35681,
        "meta_element_set_no": 999,
        "meta_rev_at_epoch": 87839,
        "meta_bstar": 0.00019777151,
        "meta_mean_motion_dot": 1.281e-05,
        "meta_mean_motion_ddot": 0,
        "tle_line1": "1 35681U 09041A   25339.93018277  .00001281  00000+0  19777-3 0  9991",
        "tle_line2": "2 35681  97.7153 140.8510 0002687  92.6109 267.5408 14.74936163878397"
      },
      "geometry": {
        "type": "Point",
        "coordinates": [
          137.539169632955,
          26.25301705066247
        ]
      }
    },
    {
      "type": "Feature",
      "properties": {
        "norad_id": 35683,
        "name": "UK-DMC 2",
        "group": "dmc",
        "lat": 26.254643611073387,
        "lon": 111.65258174918625,
        "alt_km": 642.0837413646213,
        "timestamp": "2025-12-06T11:28:10.695944+00:00",
        "meta_object_name": "UK-DMC 2",
        "meta_object_id": "2009-041C",
        "meta_epoch": "2025-12-05T22:19:48.896256",
        "meta_mean_motion": 14.75598285,
        "meta_eccentricity": 0.00013552,
        "meta_inclination": 97.8562,
        "meta_ra_of_asc_node": 115.0259,
        "meta_arg_of_pericenter": 102.7457,
        "meta_mean_anomaly": 257.3904,
        "meta_ephemeris_type": 0,
        "meta_classification_type": "U",
        "meta_norad_cat_id": 35683,
        "meta_element_set_no": 999,
        "meta_rev_at_epoch": 87806,
        "meta_bstar": 0.00029955195,
        "meta_mean_motion_dot": 1.994e-05,
        "meta_mean_motion_ddot": 0,
        "tle_line1": "1 35683U 09041C   25339.93042704  .00001994  00000+0  29955-3 0  9995",
        "tle_line2": "2 35683  97.8562 115.0259 0001355 102.7457 257.3904 14.75598285878060"
      },
      "geometry": {
        "type": "Point",
        "coordinates": [
          111.65258174918625,
          26.254643611073387
        ]
      }
    },
    {
      "type": "Feature",
      "properties": {
        "norad_id": 40715,
        "name": "DMC3-FM1",
        "group": "dmc",
        "lat": -34.35235570767474,
        "lon": 22.61333315472548,
        "alt_km": 620.784160831905,
        "timestamp": "2025-12-06T11:28:10.695955+00:00",
        "meta_object_name": "DMC3-FM1",
        "meta_object_id": "2015-032A",
        "meta_epoch": "2025-12-05T21:34:21.389952",
        "meta_mean_motion": 14.85422198,
        "meta_eccentricity": 0.00051188,
        "meta_inclination": 97.6698,
        "meta_ra_of_asc_node": 207.3404,
        "meta_arg_of_pericenter": 345.9388,
        "meta_mean_anomaly": 14.1685,
        "meta_ephemeris_type": 0,
        "meta_classification_type": "U",
        "meta_norad_cat_id": 40715,
        "meta_element_set_no": 999,
        "meta_rev_at_epoch": 56121,
        "meta_bstar": 0.00018313828,
        "meta_mean_motion_dot": 1.527e-05,
        "meta_mean_motion_ddot": 0,
        "tle_line1": "1 40715U 15032A   25339.89885868  .00001527  00000+0  18314-3 0  9994",
        "tle_line2": "2 40715  97.6698 207.3404 0005118 345.9388  14.1685 14.85422198561213"
      },
      "geometry": {
        "type": "Point",
        "coordinates": [
          22.61333315472548,
          -34.35235570767474
        ]
      }
    },
    {
      "type": "Feature",
      "properties": {
        "norad_id": 40716,
        "name": "DMC3-FM2",
        "group": "dmc",
        "lat": 81.12612864945,
        "lon": 89.08931838741594,
        "alt_km": 605.933687420571,
        "timestamp": "2025-12-06T11:28:10.695966+00:00",
        "meta_object_name": "DMC3-FM2",
        "meta_object_id": "2015-032B",
        "meta_epoch": "2025-12-05T22:06:45.737280",
        "meta_mean_motion": 14.85423193,
        "meta_eccentricity": 0.00057566,
        "meta_inclination": 97.6761,
        "meta_ra_of_asc_node": 208.8011,
        "meta_arg_of_pericenter": 350.2659,
        "meta_mean_anomaly": 9.8444,
        "meta_ephemeris_type": 0,
        "meta_classification_type": "U",
        "meta_norad_cat_id": 40716,
        "meta_element_set_no": 999,
        "meta_rev_at_epoch": 56121,
        "meta_bstar": 0.0001778893,
        "meta_mean_motion_dot": 1.481e-05,
        "meta_mean_motion_ddot": 0,
        "tle_line1": "1 40716U 15032B   25339.92136270  .00001481  00000+0  17789-3 0  9999",
        "tle_line2": "2 40716  97.6761 208.8011 0005756 350.2659   9.8444 14.85423193561213"
      },
      "geometry": {
        "type": "Point",
        "coordinates": [
          89.08931838741594,
          81.12612864945
        ]
      }
    },
    {
      "type": "Feature",
      "properties": {
        "norad_id": 40717,
        "name": "DMC3-FM3",
        "group": "dmc",
        "lat": -20.88570190403164,
        "lon": -146.0813839744558,
        "alt_km": 614.0758077920273,
        "timestamp": "2025-12-06T11:28:10.695976+00:00",
        "meta_object_name": "DMC3-FM3",
        "meta_object_id": "2015-032C",
        "meta_epoch": "2025-12-05T22:37:50.226816",
        "meta_mean_motion": 14.85415112,
        "meta_eccentricity": 0.0005119,
        "meta_inclination": 97.6816,
        "meta_ra_of_asc_node": 210.4504,
        "meta_arg_of_pericenter": 352.3742,
        "meta_mean_anomaly": 7.7394,
        "meta_ephemeris_type": 0,
        "meta_classification_type": "U",
        "meta_norad_cat_id": 40717,
        "meta_element_set_no": 999,
        "meta_rev_at_epoch": 56122,
        "meta_bstar": 0.00014584401,
        "meta_mean_motion_dot": 1.205e-05,
        "meta_mean_motion_ddot": 0,
        "tle_line1": "1 40717U 15032C   25339.94294244  .00001205  00000+0  14584-3 0  9992",
        "tle_line2": "2 40717  97.6816 210.4504 0005119 352.3742   7.7394 14.85415112561224"
      },
      "geometry": {
        "type": "Point",
        "coordinates": [
          -146.0813839744558,
          -20.88570190403164
        ]
      }
    }
  ]
}